[Satellite]
VERSION=1.1
NAME=CANX-4
NICKNAME=CANX-4
TLE1=1 40055U 14034C   15055.44590193  .00001043  00000-0  16704-3 0  9996
TLE2=2 40055  98.2280 131.4491 0013494 230.3793 129.6224 14.73866792 35238
